NORAD_CAT_ID,OBJECT_NAME,OBJECT_TYPE,EPOCH,MEAN_MOTION,ECCENTRICITY,INCLINATION,RA_OF_ASC_NODE,ARG_OF_PERICENTER,MEAN_ANOMALY,BSTAR,MEAN_MOTION_DOT,MEAN_MOTION_DDOT,TLE_LINE0,TLE_LINE1,TLE_LINE2,SEMIMAJOR_AXIS,PERIOD,APOGEE,PERIGEE,DECAYED
56473.0,STARLINK-5486,PAYLOAD,2023-09-27 14:41:17,14.99304377,0.0002883,69.9993,218.7991,270.8418,89.2411,-1.8081e-05,-3.15e-06,0.0,0 STARLINK-5486,1 56473U 23064AB  23270.61200967 -.00000315  00000-0 -18081-4 0  9998,2 56473  69.9993 218.7991 0002883 270.8418  89.2411 14.99304377 22174,6947.181,96.045,571.049,567.043,0.0
56473.0,STARLINK-5486,PAYLOAD,2023-09-28 01:53:49,14.99281548,0.0002666,69.9996,217.6197,268.884,91.2014,-0.00021356,-2.705e-05,0.0,0 STARLINK-5486,1 56473U 23064AB  23271.07904995 -.00002705  00000-0 -21356-3 0  9994,2 56473  69.9996 217.6197 0002666 268.8840  91.2014 14.99281548 22242,6947.252,96.046,570.969,567.265,0.0
56473.0,STARLINK-5486,PAYLOAD,2023-09-28 06:42:02,14.99284916,0.0002459,69.9998,217.1151,265.3708,94.7171,-0.00017657,-2.253e-05,0.0,0 STARLINK-5486,1 56473U 23064AB  23271.27919919 -.00002253  00000-0 -17657-3 0  9995,2 56473  69.9998 217.1151 0002459 265.3708  94.7171 14.99284916 21911,6947.241,96.046,570.815,567.398,0.0
56473.0,STARLINK-5486,PAYLOAD,2023-09-28 21:06:41,14.99295988,0.000298,69.9985,215.5989,271.0658,89.016,-6.0671e-05,-8.36e-06,0.0,0 STARLINK-5486,1 56473U 23064AB  23271.87964322 -.00000836  00000-0 -60671-4 0  9999,2 56473  69.9985 215.5989 0002980 271.0658  89.0160 14.99295988 22002,6947.207,96.045,571.143,567.002,0.0
56473.0,STARLINK-5486,PAYLOAD,2023-09-28 22:42:45,14.99294829,0.0002836,69.999,215.4298,265.4371,94.6465,-1.7805e-05,-3.12e-06,0.0,0 STARLINK-5486,1 56473U 23064AB  23271.94635919 -.00000312  00000-0 -17805-4 0  9994,2 56473  69.9990 215.4298 0002836 265.4371  94.6465 14.99294829 22372,6947.211,96.045,571.046,567.106,0.0
56473.0,STARLINK-5486,PAYLOAD,2023-09-29 06:43:06,14.99305501,0.000285,69.999,214.5878,271.3253,88.758,4.91e-05,5.07e-06,0.0,0 STARLINK-5486,1 56473U 23064AB  23272.27993537  .00000507  00000-0  49100-4 0  9991,2 56473  69.9990 214.5878 0002850 271.3253  88.7580 14.99305501 22425,6947.178,96.044,571.023,567.063,0.0
56473.0,STARLINK-5486,PAYLOAD,2023-09-30 05:08:06,14.99299901,0.0002488,70.0001,212.2293,263.3001,96.7875,0.0002997,3.575e-05,0.0,0 STARLINK-5486,1 56473U 23064AB  23273.21396587  .00003575  00000-0  29970-3 0  9998,2 56473  70.0001 212.2293 0002488 263.3001  96.7875 14.99299901 22204,6947.195,96.045,570.789,567.332,0.0
56473.0,STARLINK-5486,PAYLOAD,2023-09-30 13:08:29,14.99295349,0.0001883,70.0015,211.3859,282.3288,77.766,0.00014244,1.649e-05,0.0,0 STARLINK-5486,1 56473U 23064AB  23273.54755988  .00001649  00000-0  14244-3 0  9996,2 56473  70.0015 211.3859 0001883 282.3288  77.7660 14.99295349 22611,6947.209,96.045,570.382,567.766,0.0
56473.0,STARLINK-5486,PAYLOAD,2023-10-01 05:09:12,14.99299233,0.0002254,70.0003,209.7042,259.5372,100.5534,-1.9828e-05,-3.36e-06,0.0,0 STARLINK-5486,1 56473U 23064AB  23274.21472922 -.00000336  00000-0 -19828-4 0  9993,2 56473  70.0003 209.7042 0002254 259.5372 100.5534 14.99299233 22358,6947.197,96.045,570.628,567.496,0.0
56473.0,STARLINK-5486,PAYLOAD,2023-10-01 21:09:55,14.99303216,0.000227,70.0009,208.0204,239.4003,120.6932,-0.00011237,-1.468e-05,0.0,0 STARLINK-5486,1 56473U 23064AB  23274.88189558 -.00001468  00000-0 -11237-3 0  9998,2 56473  70.0009 208.0204 0002270 239.4003 120.6932 14.99303216 22455,6947.185,96.045,570.627,567.473,0.0
56473.0,STARLINK-5486,PAYLOAD,2023-10-02 01:58:08,14.99302266,0.0002278,70.0009,207.5148,240.6661,119.4271,-0.0001125,-1.47e-05,0.0,0 STARLINK-5486,1 56473U 23064AB  23275.08204638 -.00001470  00000-0 -11250-3 0  9996,2 56473  70.0009 207.5148 0002278 240.6661 119.4271 14.99302266 22847,6947.188,96.045,570.635,567.47,0.0
56473.0,STARLINK-5486,PAYLOAD,2023-10-02 21:11:00,14.99290768,0.0002577,69.9996,205.4899,268.5249,91.5615,7.836e-05,8.65e-06,0.0,0 STARLINK-5486,1 56473U 23064AB  23275.88264992  .00000865  00000-0  78360-4 0  9994,2 56473  69.9996 205.4899 0002577 268.5249  91.5615 14.99290768 22960,6947.223,96.045,570.879,567.298,0.0
56473.0,STARLINK-5486,PAYLOAD,2023-10-03 05:11:22,14.99300789,0.000257,70.0,204.6477,268.4106,91.676,5.9032e-05,6.29e-06,0.0,0 STARLINK-5486,1 56473U 23064AB  23276.21622915  .00000629  00000-0  59032-4 0  9998,2 56473  70.0000 204.6477 0002570 268.4106  91.6760 14.99300789 23010,6947.192,96.045,570.843,567.272,0.0
56473.0,STARLINK-5486,PAYLOAD,2023-10-03 13:11:44,14.9930057,0.0002422,70.0001,203.8052,272.2916,87.7966,-4.3525e-05,-6.26e-06,0.0,0 STARLINK-5486,1 56473U 23064AB  23276.54981611 -.00000626  00000-0 -43525-4 0  9994,2 56473  70.0001 203.8052 0002422 272.2916  87.7966 14.99300570 22706,6947.193,96.045,570.741,567.375,0.0
56473.0,STARLINK-5486,PAYLOAD,2023-10-03 21:12:05,14.99298108,0.0002482,69.9998,202.963,264.8836,95.204,-6.2814e-06,-1.71e-06,0.0,0 STARLINK-5486,1 56473U 23064AB  23276.88340135 -.00000171  00000-0 -62814-5 0  9999,2 56473  69.9998 202.9630 0002482 264.8836  95.2040 14.99298108 22759,6947.201,96.045,570.79,567.341,0.0
56473.0,STARLINK-5486,PAYLOAD,2023-10-04 05:12:27,14.99303877,0.0002618,69.9997,202.1207,269.0622,91.0237,3.5672e-05,3.43e-06,0.0,0 STARLINK-5486,1 56473U 23064AB  23277.21698047  .00000343  00000-0  35672-4 0  9995,2 56473  69.9997 202.1207 0002618 269.0622  91.0237 14.99303877 23169,6947.183,96.045,570.867,567.229,0.0
56473.0,STARLINK-5486,PAYLOAD,2023-10-04 21:13:10,14.99301197,0.0002421,69.9997,200.4359,267.3924,92.6958,4.5406e-05,4.62e-06,0.0,0 STARLINK-5486,1 56473U 23064AB  23277.88414919  .00000462  00000-0  45406-4 0  9990,2 56473  69.9997 200.4359 0002421 267.3924  92.6958 14.99301197 22907,6947.191,96.045,570.738,567.374,0.0
56473.0,STARLINK-5486,PAYLOAD,2023-10-05 05:13:32,14.99266673,0.0002884,70.0003,199.5947,276.9834,83.0998,0.00075052,9.093e-05,0.0,0 STARLINK-5486,1 56473U 23064AB  23278.21773801  .00009093  00000-0  75052-3 0  9994,2 56473  70.0003 199.5947 0002884 276.9834  83.0998 14.99266673 23311,6947.298,96.047,571.166,567.159,0.0
56473.0,STARLINK-5486,PAYLOAD,2023-10-05 21:14:15,14.99300289,0.0002332,70.0012,197.9116,258.792,101.2977,5.5407e-05,5.84e-06,0.0,0 STARLINK-5486,1 56473U 23064AB  23278.88489879  .00000584  00000-0  55407-4 0  9995,2 56473  70.0012 197.9116 0002332 258.7920 101.2977 14.99300289 23416,6947.194,96.045,570.679,567.439,0.0
56473.0,STARLINK-5486,PAYLOAD,2023-10-06 11:38:55,14.99287314,0.0002826,70.0004,196.3936,283.0306,77.0538,-0.00015775,-2.023e-05,0.0,0 STARLINK-5486,1 56473U 23064AB  23279.48536424 -.00002023  00000-0 -15775-3 0  9996,2 56473  70.0004 196.3936 0002826 283.0306  77.0538 14.99287314 23143,6947.234,96.046,571.062,567.136,0.0
56473.0,STARLINK-5486,PAYLOAD,2023-10-06 21:15:56,14.98872442,0.0002746,70.0013,195.3865,266.158,93.9265,-0.0045021,-0.00054153,0.0,0 STARLINK-5486,1 56473U 23064AB  23279.88607332 -.00054153  00000-0 -45021-2 0  9994,2 56473  70.0013 195.3865 0002746 266.1580  93.9265 14.98872442 23202,6948.516,96.072,572.289,568.473,0.0
56473.0,STARLINK-5486,PAYLOAD,2023-10-07 00:28:14,14.98786974,0.000238,70.0008,195.0497,247.9594,112.1313,-0.0053105,-0.00063631,0.0,0 STARLINK-5486,1 56473U 23064AB  23280.01961573 -.00063631  00000-0 -53105-2 0  9994,2 56473  70.0008 195.0497 0002380 247.9594 112.1313 14.98786974 23583,6948.78,96.078,572.299,568.991,0.0
56473.0,STARLINK-5486,PAYLOAD,2023-10-07 10:04:54,14.98744215,0.0002683,70.0002,194.0378,277.0149,83.0705,-0.005333,-0.00063829,0.0,0 STARLINK-5486,1 56473U 23064AB  23280.42007211 -.00063829  00000-0 -53330-2 0  9998,2 56473  70.0002 194.0378 0002683 277.0149  83.0705 14.98744215 23640,6948.912,96.08,572.642,568.913,0.0
56473.0,STARLINK-5486,PAYLOAD,2023-10-07 11:41:01,14.98733749,0.0002737,70.0017,193.8702,277.4504,82.6345,-0.0053208,-0.00063668,0.0,0 STARLINK-5486,1 56473U 23064AB  23280.48681841 -.00063668  00000-0 -53208-2 0  9996,2 56473  70.0017 193.8702 0002737 277.4504  82.6345 14.98733749 23299,6948.945,96.081,572.712,568.908,0.0
56473.0,STARLINK-5486,PAYLOAD,2023-10-07 16:29:21,14.98704048,0.0003073,69.9993,193.3649,266.8219,93.2588,-0.0051978,-0.00062165,0.0,0 STARLINK-5486,1 56473U 23064AB  23280.68705469 -.00062165  00000-0 -51978-2 0  9994,2 56473  69.9993 193.3649 0003073 266.8219  93.2588 14.98704048 23683,6949.036,96.083,573.037,568.766,0.0
56473.0,STARLINK-5486,PAYLOAD,2023-10-07 21:17:41,14.98690236,0.0003313,69.9991,192.8595,275.5573,84.5208,-0.0051061,-0.00061059,0.0,0 STARLINK-5486,1 56473U 23064AB  23280.88728975 -.00061059  00000-0 -51061-2 0  9997,2 56473  69.9991 192.8595 0003313 275.5573  84.5208 14.98690236 23351,6949.079,96.084,573.246,568.642,0.0
56473.0,STARLINK-5486,PAYLOAD,2023-10-08 03:42:08,14.98674439,0.0002926,69.9998,192.1861,269.5172,90.5652,-0.0048092,-0.00057518,0.0,0 STARLINK-5486,1 56473U 23064AB  23281.15426851 -.00057518  00000-0 -48092-2 0  9991,2 56473  69.9998 192.1861 0002926 269.5172  90.5652 14.98674439 23755,6949.128,96.085,573.026,568.96,0.0
56473.0,STARLINK-5486,PAYLOAD,2023-10-08 18:07:16,14.98482023,0.0003361,69.9991,190.6698,259.1036,100.9745,-0.0024761,-0.0002963,0.0,0 STARLINK-5486,1 56473U 23064AB  23281.75505063 -.00029630  00000-0 -24761-2 0  9991,2 56473  69.9991 190.6698 0003361 259.1036 100.9745 14.98482023 23842,6949.723,96.097,573.924,569.252,0.0
56473.0,STARLINK-5486,PAYLOAD,2023-10-08 21:19:31,14.98476585,0.0003323,69.9989,190.3328,260.738,99.3404,-0.0024236,-0.00029002,0.0,0 STARLINK-5486,1 56473U 23064AB  23281.88856165 -.00029002  00000-0 -24236-2 0  9997,2 56473  69.9989 190.3328 0003323 260.7380  99.3404 14.98476585 23506,6949.74,96.098,573.914,569.295,0.0
56473.0,STARLINK-5486,PAYLOAD,2023-10-09 06:00:02,14.98325076,0.0003186,70.0011,189.4227,275.416,233.7843,-0.0015224,-0.00018209,0.0,0 STARLINK-5486,1 56473U 23064AB  23282.25002315 -.00018209  00000-0 -15224-2 0  9993,2 56473  70.0011 189.4227 0003186 275.4160 233.7843 14.98325076 23912,6950.208,96.107,574.287,569.859,0.0
